{
    "links": {
        "self": "http://www.neowsapp.com/rest/v1/neo/3283780?api_key=iIulBulltgU6a56xZRHN4H3l9WmuAYTsLGpBGhQ2"
    },
    "id": "3283780",
    "neo_reference_id": "3283780",
    "name": "(2005 NX39)",
    "designation": "2005 NX39",
    "nasa_jpl_url": "http://ssd.jpl.nasa.gov/sbdb.cgi?sstr=3283780",
    "absolute_magnitude_h": 19.7,
    "estimated_diameter": {
        "kilometers": {
            "estimated_diameter_min": 0.3051792326,
            "estimated_diameter_max": 0.6824015094
        },
        "meters": {
            "estimated_diameter_min": 305.1792325939,
            "estimated_diameter_max": 682.4015094011
        },
        "miles": {
            "estimated_diameter_min": 0.1896295249,
            "estimated_diameter_max": 0.4240245083
        },
        "feet": {
            "estimated_diameter_min": 1001.2442334633,
            "estimated_diameter_max": 2238.8501681036
        }
    },
    "is_potentially_hazardous_asteroid": false,
    "close_approach_data": [
        {
            "close_approach_date": "2005-04-30",
            "close_approach_date_full": "2005-Apr-30 23:05",
            "epoch_date_close_approach": 1114902300000,
            "relative_velocity": {
                "kilometers_per_second": "32.4919703786",
                "kilometers_per_hour": "116971.0933630352",
                "miles_per_hour": "72681.2885399371"
            },
            "miss_distance": {
                "astronomical": "0.1480121144",
                "lunar": "57.5767125016",
                "kilometers": "22142297.048436328",
                "miles": "13758585.3918162064"
            },
            "orbiting_body": "Venus"
        },
        {
            "close_approach_date": "2005-07-05",
            "close_approach_date_full": "2005-Jul-05 23:08",
            "epoch_date_close_approach": 1120604880000,
            "relative_velocity": {
                "kilometers_per_second": "33.1098226862",
                "kilometers_per_hour": "119195.3616703484",
                "miles_per_hour": "74063.3623667785"
            },
            "miss_distance": {
                "astronomical": "0.1115602913",
                "lunar": "43.3969533157",
                "kilometers": "16689181.955059531",
                "miles": "10370176.7953862878"
            },
            "orbiting_body": "Earth"
        },
        {
            "close_approach_date": "2084-09-14",
            "close_approach_date_full": "2084-Sep-14 17:59",
            "epoch_date_close_approach": 3619792740000,
            "relative_velocity": {
                "kilometers_per_second": "21.1182295976",
                "kilometers_per_hour": "76025.6265511944",
                "miles_per_hour": "47239.3677867685"
            },
            "miss_distance": {
                "astronomical": "0.0208261917",
                "lunar": "8.1013885713",
                "kilometers": "3115553.918531679",
                "miles": "1935915.4353840102"
            },
            "orbiting_body": "Merc"
        }
    ],
    "orbital_data": {
        "orbit_id": "13",
        "orbit_determination_date": "2017-04-06 09:10:46",
        "first_observation_date": "2005-07-09",
        "last_observation_date": "2005-07-22",
        "data_arc_in_days": 13,
        "observations_used": 71,
        "orbit_uncertainty": "8",
        "minimum_orbit_intersection": ".0912618",
        "jupiter_tisserand_invariant": "2.758",
        "epoch_osculation": "2453566.5",
        "eccentricity": ".8766745210718093",
        "semi_major_axis": "2.458010165973886",
        "inclination": "14.15144343809006",
        "ascending_node_longitude": "121.7512427299527",
        "orbital_period": "1407.582759967792",
        "perihelion_distance": ".3031352809290909",
        "perihelion_argument": "38.15025743583348",
        "aphelion_distance": "4.61288505101868",
        "perihelion_time": "2453516.035443433421",
        "mean_anomaly": "12.90669428516171",
        "mean_motion": ".2557576081766145",
        "equinox": "J2000",
        "orbit_class": {
            "orbit_class_type": "APO",
            "orbit_class_description": "Near-Earth asteroid orbits which cross the Earth’s orbit similar to that of 1862 Apollo",
            "orbit_class_range": "a (semi-major axis) > 1.0 AU; q (perihelion) < 1.017 AU"
        }
    },
    "is_sentry_object": false
}